{
  "type": "FeatureCollection",
  "features": [
    {
      "type": "Feature",
      "properties": {
        "norad_id": 31151,
        "name": "FENGYUN 1C DEB",
        "group": "fengyun-1c-debris",
        "lat": 42.73052512385922,
        "lon": -18.286042925114373,
        "alt_km": 762.7058638479675,
        "timestamp": "2025-12-10T21:43:22.368570+00:00",
        "meta_object_name": "FENGYUN 1C DEB",
        "meta_object_id": "1999-025BHD",
        "meta_epoch": "2025-12-10T11:25:00.308064",
        "meta_mean_motion": 14.25766465,
        "meta_eccentricity": 0.00566025,
        "meta_inclination": 99.1361,
        "meta_ra_of_asc_node": 349.8156,
        "meta_arg_of_pericenter": 31.5524,
        "meta_mean_anomaly": 328.9029,
        "meta_ephemeris_type": 0,
        "meta_classification_type": "U",
        "meta_norad_cat_id": 31151,
        "meta_element_set_no": 999,
        "meta_rev_at_epoch": 95942,
        "meta_bstar": 0.003500796,
        "meta_mean_motion_dot": 8.419e-05,
        "meta_mean_motion_ddot": 0,
        "tle_line1": "1 31151U 99025BHD 25344.47569801  .00008419  00000+0  35008-2 0  9993",
        "tle_line2": "2 31151  99.1361 349.8156 0056602  31.5524 328.9029 14.25766465959425"
      },
      "geometry": {
        "type": "Point",
        "coordinates": [
          -18.286042925114373,
          42.73052512385922
        ]
      }
    },
    {
      "type": "Feature",
      "properties": {
        "norad_id": 31152,
        "name": "FENGYUN 1C DEB",
        "group": "fengyun-1c-debris",
        "lat": 60.111293818585416,
        "lon": -43.37504589473326,
        "alt_km": 680.1318936729494,
        "timestamp": "2025-12-10T21:43:22.368580+00:00",
        "meta_object_name": "FENGYUN 1C DEB",
        "meta_object_id": "1999-025BHE",
        "meta_epoch": "2025-12-10T10:26:55.324320",
        "meta_mean_motion": 14.35845892,
        "meta_eccentricity": 0.01302798,
        "meta_inclination": 98.4141,
        "meta_ra_of_asc_node": 331.0895,
        "meta_arg_of_pericenter": 40.192,
        "meta_mean_anomaly": 113.7137,
        "meta_ephemeris_type": 0,
        "meta_classification_type": "U",
        "meta_norad_cat_id": 31152,
        "meta_element_set_no": 999,
        "meta_rev_at_epoch": 98015,
        "meta_bstar": 0.00018747378,
        "meta_mean_motion_dot": 5.53e-06,
        "meta_mean_motion_ddot": 0,
        "tle_line1": "1 31152U 99025BHE 25344.43536255  .00000553  00000+0  18747-3 0  9990",
        "tle_line2": "2 31152  98.4141 331.0895 0130279  40.1920 113.7137 14.35845892980153"
      },
      "geometry": {
        "type": "Point",
        "coordinates": [
          -43.37504589473326,
          60.111293818585416
        ]
      }
    },
    {
      "type": "Feature",
      "properties": {
        "norad_id": 31155,
        "name": "FENGYUN 1C DEB",
        "group": "fengyun-1c-debris",
        "lat": 27.805759387306946,
        "lon": -121.3544154857042,
        "alt_km": 915.4797461339813,
        "timestamp": "2025-12-10T21:43:22.368590+00:00",
        "meta_object_name": "FENGYUN 1C DEB",
        "meta_object_id": "1999-025BHH",
        "meta_epoch": "2025-12-10T10:46:40.324512",
        "meta_mean_motion": 14.08311159,
        "meta_eccentricity": 0.00889377,
        "meta_inclination": 99.042,
        "meta_ra_of_asc_node": 53.3715,
        "meta_arg_of_pericenter": 9.4839,
        "meta_mean_anomaly": 350.7984,
        "meta_ephemeris_type": 0,
        "meta_classification_type": "U",
        "meta_norad_cat_id": 31155,
        "meta_element_set_no": 999,
        "meta_rev_at_epoch": 95555,
        "meta_bstar": 0.0015274685,
        "meta_mean_motion_dot": 2.664e-05,
        "meta_mean_motion_ddot": 0,
        "tle_line1": "1 31155U 99025BHH 25344.44907783  .00002664  00000+0  15275-2 0  9999",
        "tle_line2": "2 31155  99.0420  53.3715 0088937   9.4839 350.7984 14.08311159955551"
      },
      "geometry": {
        "type": "Point",
        "coordinates": [
          -121.3544154857042,
          27.805759387306946
        ]
      }
    },
    {
      "type": "Feature",
      "properties": {
        "norad_id": 31157,
        "name": "FENGYUN 1C DEB",
        "group": "fengyun-1c-debris",
        "lat": -2.0579433428748297,
        "lon": -31.204368460238296,
        "alt_km": 754.9091477079737,
        "timestamp": "2025-12-10T21:43:22.368601+00:00",
        "meta_object_name": "FENGYUN 1C DEB",
        "meta_object_id": "1999-025BHK",
        "meta_epoch": "2025-12-09T17:02:08.473920",
        "meta_mean_motion": 14.22555615,
        "meta_eccentricity": 0.01003907,
        "meta_inclination": 98.4789,
        "meta_ra_of_asc_node": 327.3382,
        "meta_arg_of_pericenter": 335.3802,
        "meta_mean_anomaly": 24.2601,
        "meta_ephemeris_type": 0,
        "meta_classification_type": "U",
        "meta_norad_cat_id": 31157,
        "meta_element_set_no": 999,
        "meta_rev_at_epoch": 96940,
        "meta_bstar": 0.00055432669,
        "meta_mean_motion_dot": 1.261e-05,
        "meta_mean_motion_ddot": 0,
        "tle_line1": "1 31157U 99025BHK 25343.70982030  .00001261  00000+0  55433-3 0  9990",
        "tle_line2": "2 31157  98.4789 327.3382 0100390 335.3802  24.2601 14.22555615969408"
      },
      "geometry": {
        "type": "Point",
        "coordinates": [
          -31.204368460238296,
          -2.0579433428748297
        ]
      }
    },
    {
      "type": "Feature",
      "properties": {
        "norad_id": 31158,
        "name": "FENGYUN 1C DEB",
        "group": "fengyun-1c-debris",
        "lat": 78.11619704577052,
        "lon": -69.20996138799234,
        "alt_km": 755.3088827318197,
        "timestamp": "2025-12-10T21:43:22.368611+00:00",
        "meta_object_name": "FENGYUN 1C DEB",
        "meta_object_id": "1999-025BHL",
        "meta_epoch": "2025-12-09T11:45:37.421280",
        "meta_mean_motion": 14.33182755,
        "meta_eccentricity": 0.00475394,
        "meta_inclination": 98.7798,
        "meta_ra_of_asc_node": 62.0987,
        "meta_arg_of_pericenter": 44.6824,
        "meta_mean_anomaly": 315.8174,
        "meta_ephemeris_type": 0,
        "meta_classification_type": "U",
        "meta_norad_cat_id": 31158,
        "meta_element_set_no": 999,
        "meta_rev_at_epoch": 64433,
        "meta_bstar": 0.0025161115,
        "meta_mean_motion_dot": 6.96e-05,
        "meta_mean_motion_ddot": 0,
        "tle_line1": "1 31158U 99025BHL 25343.49001645  .00006960  00000+0  25161-2 0  9996",
        "tle_line2": "2 31158  98.7798  62.0987 0047539  44.6824 315.8174 14.33182755644334"
      },
      "geometry": {
        "type": "Point",
        "coordinates": [
          -69.20996138799234,
          78.11619704577052
        ]
      }
    },
    {
      "type": "Feature",
      "properties": {
        "norad_id": 31159,
        "name": "FENGYUN 1C DEB",
        "group": "fengyun-1c-debris",
        "lat": -81.50681761440487,
        "lon": 57.77696387545948,
        "alt_km": 489.78667664960903,
        "timestamp": "2025-12-10T21:43:22.368621+00:00",
        "meta_object_name": "FENGYUN 1C DEB",
        "meta_object_id": "1999-025BHM",
        "meta_epoch": "2025-12-07T03:32:01.799520",
        "meta_mean_motion": 15.37177071,
        "meta_eccentricity": 0.01157472,
        "meta_inclination": 97.7995,
        "meta_ra_of_asc_node": 300.4097,
        "meta_arg_of_pericenter": 33.2484,
        "meta_mean_anomaly": 327.5962,
        "meta_ephemeris_type": 0,
        "meta_classification_type": "U",
        "meta_norad_cat_id": 31159,
        "meta_element_set_no": 999,
        "meta_rev_at_epoch": 99467,
        "meta_bstar": 0.0020820653,
        "meta_mean_motion_dot": 0.00096035,
        "meta_mean_motion_ddot": 0,
        "tle_line1": "1 31159U 99025BHM 25341.14724305  .00096035  00000+0  20821-2 0  9992",
        "tle_line2": "2 31159  97.7995 300.4097 0115747  33.2484 327.5962 15.37177071994677"
      },
      "geometry": {
        "type": "Point",
        "coordinates": [
          57.77696387545948,
          -81.50681761440487
        ]
      }
    },
    {
      "type": "Feature",
      "properties": {
        "norad_id": 31160,
        "name": "FENGYUN 1C DEB",
        "group": "fengyun-1c-debris",
        "lat": 61.52919817951489,
        "lon": 24.03579330428563,
        "alt_km": 928.3159329872551,
        "timestamp": "2025-12-10T21:43:22.368634+00:00",
        "meta_object_name": "FENGYUN 1C DEB",
        "meta_object_id": "1999-025BHN",
        "meta_epoch": "2025-12-10T14:33:30.335904",
        "meta_mean_motion": 13.99592431,
        "meta_eccentricity": 0.00566918,
        "meta_inclination": 99.0865,
        "meta_ra_of_asc_node": 40.9032,
        "meta_arg_of_pericenter": 262.0063,
        "meta_mean_anomaly": 97.4665,
        "meta_ephemeris_type": 0,
        "meta_classification_type": "U",
        "meta_norad_cat_id": 31160,
        "meta_element_set_no": 999,
        "meta_rev_at_epoch": 69569,
        "meta_bstar": 0.0001492177,
        "meta_mean_motion_dot": 1.76e-06,
        "meta_mean_motion_ddot": 0,
        "tle_line1": "1 31160U 99025BHN 25344.60660111  .00000176  00000+0  14922-3 0  9999",
        "tle_line2": "2 31160  99.0865  40.9032 0056691 262.0063  97.4665 13.99592431695692"
      },
      "geometry": {
        "type": "Point",
        "coordinates": [
          24.03579330428563,
          61.52919817951489
        ]
      }
    }
  ]
}